{
  "norad_id": 57977,
  "name": "STARLINK-30509",
  "history": [
    {
      "epoch": "2026-03-28T17:13:27.692832",
      "apogee_km": 484.35412803664076,
      "perigee_km": 481.7781579286402,
      "latitude_deg": -43.00238032824753,
      "longitude_deg": 46.5974364799913,
      "semi_major_axis_km": 6861.20314298264,
      "eccentricity": 0.00018772,
      "inclination_deg": 43.0046,
      "raan_deg": 243.2038,
      "arg_perigee_deg": 267.2431,
      "mean_anomaly_deg": 92.8206,
      "mean_motion_rev_day": 15.27574307
    },
    {
      "epoch": "2026-03-29T02:38:23.587008",
      "apogee_km": 484.0631704559637,
      "perigee_km": 482.02128351801275,
      "latitude_deg": -43.001367131520794,
      "longitude_deg": 84.2595411199145,
      "semi_major_axis_km": 6861.1792269869875,
      "eccentricity": 0.0001488,
      "inclination_deg": 43.0071,
      "raan_deg": 240.9904,
      "arg_perigee_deg": 259.7462,
      "mean_anomaly_deg": 100.3222,
      "mean_motion_rev_day": 15.27582294
    }
  ]
}